SL-4 R/B                
1 39679U 14021B   25358.19059351  .00012729  00000+0  30195-3 0  9999
2 39679  51.6093 344.9337 0100917 187.5474 172.3995 15.36926598644652
ALOS-2                  
1 39766U 14029A   25358.98459557  .00003225  00000+0  43861-3 0  9998
2 39766  97.9226  93.6564 0001364 101.0923 259.0442 14.79466578625827
YAOGAN-29               
1 41038U 15069A   25358.83051966  .00000625  00000+0  83812-4 0  9996
2 41038  98.0205  22.0399 0000882 165.8898 194.2339 14.82895051544782
ASTRO-H (HITOMI)        
1 41337U 16012A   25358.65961124  .00003659  00000+0  21730-3 0  9993
2 41337  30.9990 120.5212 0009692 298.1550  61.8109 15.09426021540889
HXMT (HUIYAN)           
1 42758U 17034A   25358.71391402  .00006356  00000+0  32954-3 0  9996
2 42758  43.0144  73.1756 0031190 122.0509 238.3374 15.16371541471158
CZ-2C R/B               
1 43521U 18054D   25358.58494824  .00124656  00000+0  73842-3 0  9990
2 43521  35.1339 100.4243 0014805 261.9047  98.0007 15.76545810416920
SAOCOM 1A               
1 43641U 18076A   25358.82380419  .00000621  00000+0  84583-4 0  9998
2 43641  97.8841 183.0703 0001351  86.6205 273.5163 14.82145783390277
H-2A R/B                
1 43682U 18084L   25358.79692767  .00019189  00000+0  51275-3 0  9990
2 43682  98.8766 195.3789 0026566 284.0972  75.7316 15.37800202394258
SAOCOM 1B               
1 46265U 20059A   25358.85507003  .00000391  00000+0  55702-4 0  9995
2 46265  97.8837 182.2005 0001404  85.3443 274.7930 14.82148978287664
CSS (TIANHE)            
1 48274U 21035A   25358.81873345  .00016866  00000+0  20889-3 0  9994
2 48274  41.4684 303.3494 0008229 137.3880 222.7598 15.59649599265911
COSMOS 2550             
1 48865U 21056A   25358.33299051 -.00000141  00000+0  15523-5 0  9997
2 48865  67.1450 268.8671 0008421 268.4893  91.5297 15.33846235251909
CZ-2C R/B               
1 52794U 22058K   25358.67847865  .00027249  00000+0  47985-3 0  9997
2 52794  50.1922 342.6388 0044644 247.7057 111.9175 15.49077723198486
