CCSDS_OMM_VERS = 2.0
CREATION_DATE  = 
ORIGINATOR     = 

OBJECT_NAME    = SL-4 R/B
OBJECT_ID      = 2014-021B
CENTER_NAME    = EARTH
REF_FRAME      = TEME
TIME_SYSTEM    = UTC
MEAN_ELEMENT_THEORY = SGP/SGP4

EPOCH          = 2025-12-24T04:34:27.279264
MEAN_MOTION    = 15.36926598
ECCENTRICITY   = .01009179
INCLINATION    = 51.6093
RA_OF_ASC_NODE = 344.9337
ARG_OF_PERICENTER = 187.5474
MEAN_ANOMALY   = 172.3995

EPHEMERIS_TYPE = 0
CLASSIFICATION_TYPE = U
NORAD_CAT_ID   = 39679
ELEMENT_SET_NO = 999
REV_AT_EPOCH   = 64465
BSTAR          = .30194981E-3
MEAN_MOTION_DOT = .12729E-3
MEAN_MOTION_DDOT = 0

CCSDS_OMM_VERS = 2.0
CREATION_DATE  = 
ORIGINATOR     = 

OBJECT_NAME    = ALOS-2
OBJECT_ID      = 2014-029A
CENTER_NAME    = EARTH
REF_FRAME      = TEME
TIME_SYSTEM    = UTC
MEAN_ELEMENT_THEORY = SGP/SGP4

EPOCH          = 2025-12-24T23:37:49.057248
MEAN_MOTION    = 14.79466578
ECCENTRICITY   = .0001364
INCLINATION    = 97.9226
RA_OF_ASC_NODE = 93.6564
ARG_OF_PERICENTER = 101.0923
MEAN_ANOMALY   = 259.0442

EPHEMERIS_TYPE = 0
CLASSIFICATION_TYPE = U
NORAD_CAT_ID   = 39766
ELEMENT_SET_NO = 999
REV_AT_EPOCH   = 62582
BSTAR          = .43861E-3
MEAN_MOTION_DOT = .3225E-4
MEAN_MOTION_DDOT = 0

CCSDS_OMM_VERS = 2.0
CREATION_DATE  = 
ORIGINATOR     = 

OBJECT_NAME    = YAOGAN-29
OBJECT_ID      = 2015-069A
CENTER_NAME    = EARTH
REF_FRAME      = TEME
TIME_SYSTEM    = UTC
MEAN_ELEMENT_THEORY = SGP/SGP4

EPOCH          = 2025-12-24T19:55:56.898624
MEAN_MOTION    = 14.82895051
ECCENTRICITY   = .0000882
INCLINATION    = 98.0205
RA_OF_ASC_NODE = 22.0399
ARG_OF_PERICENTER = 165.8898
MEAN_ANOMALY   = 194.2339

EPHEMERIS_TYPE = 0
CLASSIFICATION_TYPE = U
NORAD_CAT_ID   = 41038
ELEMENT_SET_NO = 999
REV_AT_EPOCH   = 54478
BSTAR          = .83812E-4
MEAN_MOTION_DOT = .625E-5
MEAN_MOTION_DDOT = 0

CCSDS_OMM_VERS = 2.0
CREATION_DATE  = 
ORIGINATOR     = 

OBJECT_NAME    = ASTRO-H (HITOMI)
OBJECT_ID      = 2016-012A
CENTER_NAME    = EARTH
REF_FRAME      = TEME
TIME_SYSTEM    = UTC
MEAN_ELEMENT_THEORY = SGP/SGP4

EPOCH          = 2025-12-24T15:49:50.411136
MEAN_MOTION    = 15.09426021
ECCENTRICITY   = .0009692
INCLINATION    = 30.9990
RA_OF_ASC_NODE = 120.5212
ARG_OF_PERICENTER = 298.1550
MEAN_ANOMALY   = 61.8109

EPHEMERIS_TYPE = 0
CLASSIFICATION_TYPE = U
NORAD_CAT_ID   = 41337
ELEMENT_SET_NO = 999
REV_AT_EPOCH   = 54088
BSTAR          = .2173E-3
MEAN_MOTION_DOT = .3659E-4
MEAN_MOTION_DDOT = 0

CCSDS_OMM_VERS = 2.0
CREATION_DATE  = 
ORIGINATOR     = 

OBJECT_NAME    = HXMT (HUIYAN)
OBJECT_ID      = 2017-034A
CENTER_NAME    = EARTH
REF_FRAME      = TEME
TIME_SYSTEM    = UTC
MEAN_ELEMENT_THEORY = SGP/SGP4

EPOCH          = 2025-12-24T17:08:02.171328
MEAN_MOTION    = 15.16371541
ECCENTRICITY   = .003119
INCLINATION    = 43.0144
RA_OF_ASC_NODE = 73.1756
ARG_OF_PERICENTER = 122.0509
MEAN_ANOMALY   = 238.3374

EPHEMERIS_TYPE = 0
CLASSIFICATION_TYPE = U
NORAD_CAT_ID   = 42758
ELEMENT_SET_NO = 999
REV_AT_EPOCH   = 47115
BSTAR          = .32954E-3
MEAN_MOTION_DOT = .6356E-4
MEAN_MOTION_DDOT = 0

CCSDS_OMM_VERS = 2.0
CREATION_DATE  = 
ORIGINATOR     = 

OBJECT_NAME    = CZ-2C R/B
OBJECT_ID      = 2018-054D
CENTER_NAME    = EARTH
REF_FRAME      = TEME
TIME_SYSTEM    = UTC
MEAN_ELEMENT_THEORY = SGP/SGP4

EPOCH          = 2025-12-24T14:02:19.527936
MEAN_MOTION    = 15.76545810
ECCENTRICITY   = .0014805
INCLINATION    = 35.1339
RA_OF_ASC_NODE = 100.4243
ARG_OF_PERICENTER = 261.9047
MEAN_ANOMALY   = 98.0007

EPHEMERIS_TYPE = 0
CLASSIFICATION_TYPE = U
NORAD_CAT_ID   = 43521
ELEMENT_SET_NO = 999
REV_AT_EPOCH   = 41692
BSTAR          = .73842E-3
MEAN_MOTION_DOT = .124656E-2
MEAN_MOTION_DDOT = 0

CCSDS_OMM_VERS = 2.0
CREATION_DATE  = 
ORIGINATOR     = 

OBJECT_NAME    = SAOCOM 1A
OBJECT_ID      = 2018-076A
CENTER_NAME    = EARTH
REF_FRAME      = TEME
TIME_SYSTEM    = UTC
MEAN_ELEMENT_THEORY = SGP/SGP4

EPOCH          = 2025-12-24T19:46:16.682016
MEAN_MOTION    = 14.82145783
ECCENTRICITY   = .0001351
INCLINATION    = 97.8841
RA_OF_ASC_NODE = 183.0703
ARG_OF_PERICENTER = 86.6205
MEAN_ANOMALY   = 273.5163

EPHEMERIS_TYPE = 0
CLASSIFICATION_TYPE = U
NORAD_CAT_ID   = 43641
ELEMENT_SET_NO = 999
REV_AT_EPOCH   = 39027
BSTAR          = .84583E-4
MEAN_MOTION_DOT = .621E-5
MEAN_MOTION_DDOT = 0

CCSDS_OMM_VERS = 2.0
CREATION_DATE  = 
ORIGINATOR     = 

OBJECT_NAME    = H-2A R/B
OBJECT_ID      = 2018-084L
CENTER_NAME    = EARTH
REF_FRAME      = TEME
TIME_SYSTEM    = UTC
MEAN_ELEMENT_THEORY = SGP/SGP4

EPOCH          = 2025-12-24T19:07:34.550688
MEAN_MOTION    = 15.37800202
ECCENTRICITY   = .0026566
INCLINATION    = 98.8766
RA_OF_ASC_NODE = 195.3789
ARG_OF_PERICENTER = 284.0972
MEAN_ANOMALY   = 75.7316

EPHEMERIS_TYPE = 0
CLASSIFICATION_TYPE = U
NORAD_CAT_ID   = 43682
ELEMENT_SET_NO = 999
REV_AT_EPOCH   = 39425
BSTAR          = .51275E-3
MEAN_MOTION_DOT = .19189E-3
MEAN_MOTION_DDOT = 0

CCSDS_OMM_VERS = 2.0
CREATION_DATE  = 
ORIGINATOR     = 

OBJECT_NAME    = SAOCOM 1B
OBJECT_ID      = 2020-059A
CENTER_NAME    = EARTH
REF_FRAME      = TEME
TIME_SYSTEM    = UTC
MEAN_ELEMENT_THEORY = SGP/SGP4

EPOCH          = 2025-12-24T20:31:18.050592
MEAN_MOTION    = 14.82148978
ECCENTRICITY   = .0001404
INCLINATION    = 97.8837
RA_OF_ASC_NODE = 182.2005
ARG_OF_PERICENTER = 85.3443
MEAN_ANOMALY   = 274.7930

EPHEMERIS_TYPE = 0
CLASSIFICATION_TYPE = U
NORAD_CAT_ID   = 46265
ELEMENT_SET_NO = 999
REV_AT_EPOCH   = 28766
BSTAR          = .55702E-4
MEAN_MOTION_DOT = .391E-5
MEAN_MOTION_DDOT = 0

CCSDS_OMM_VERS = 2.0
CREATION_DATE  = 
ORIGINATOR     = 

OBJECT_NAME    = CSS (TIANHE)
OBJECT_ID      = 2021-035A
CENTER_NAME    = EARTH
REF_FRAME      = TEME
TIME_SYSTEM    = UTC
MEAN_ELEMENT_THEORY = SGP/SGP4

EPOCH          = 2025-12-24T19:38:58.570080
MEAN_MOTION    = 15.59649599
ECCENTRICITY   = .0008229
INCLINATION    = 41.4684
RA_OF_ASC_NODE = 303.3494
ARG_OF_PERICENTER = 137.3880
MEAN_ANOMALY   = 222.7598

EPHEMERIS_TYPE = 0
CLASSIFICATION_TYPE = U
NORAD_CAT_ID   = 48274
ELEMENT_SET_NO = 999
REV_AT_EPOCH   = 26591
BSTAR          = .20889E-3
MEAN_MOTION_DOT = .16866E-3
MEAN_MOTION_DDOT = 0

CCSDS_OMM_VERS = 2.0
CREATION_DATE  = 
ORIGINATOR     = 

OBJECT_NAME    = COSMOS 2550
OBJECT_ID      = 2021-056A
CENTER_NAME    = EARTH
REF_FRAME      = TEME
TIME_SYSTEM    = UTC
MEAN_ELEMENT_THEORY = SGP/SGP4

EPOCH          = 2025-12-24T07:59:30.380064
MEAN_MOTION    = 15.33846235
ECCENTRICITY   = .00084212
INCLINATION    = 67.1450
RA_OF_ASC_NODE = 268.8671
ARG_OF_PERICENTER = 268.4893
MEAN_ANOMALY   = 91.5297

EPHEMERIS_TYPE = 0
CLASSIFICATION_TYPE = U
NORAD_CAT_ID   = 48865
ELEMENT_SET_NO = 999
REV_AT_EPOCH   = 25190
BSTAR          = .1552278E-5
MEAN_MOTION_DOT = -.141E-5
MEAN_MOTION_DDOT = 0

CCSDS_OMM_VERS = 2.0
CREATION_DATE  = 
ORIGINATOR     = 

OBJECT_NAME    = CZ-2C R/B
OBJECT_ID      = 2022-058K
CENTER_NAME    = EARTH
REF_FRAME      = TEME
TIME_SYSTEM    = UTC
MEAN_ELEMENT_THEORY = SGP/SGP4

EPOCH          = 2025-12-24T16:17:00.555360
MEAN_MOTION    = 15.49077723
ECCENTRICITY   = .0044644
INCLINATION    = 50.1922
RA_OF_ASC_NODE = 342.6388
ARG_OF_PERICENTER = 247.7057
MEAN_ANOMALY   = 111.9175

EPHEMERIS_TYPE = 0
CLASSIFICATION_TYPE = U
NORAD_CAT_ID   = 52794
ELEMENT_SET_NO = 999
REV_AT_EPOCH   = 19848
BSTAR          = .47985E-3
MEAN_MOTION_DOT = .27249E-3
MEAN_MOTION_DDOT = 0

